[{"OBJECT_NAME":"ICEYE-X48","OBJECT_ID":"2025-052AV","EPOCH":"2026-03-09T16:59:01.566528","MEAN_MOTION":14.97356709,"ECCENTRICITY":0.00026878,"INCLINATION":97.6979,"RA_OF_ASC_NODE":322.3976,"ARG_OF_PERICENTER":141.7433,"MEAN_ANOMALY":218.398,"EPHEMERIS_TYPE":0,"CLASSIFICATION_TYPE":"U","NORAD_CAT_ID":63253,"ELEMENT_SET_NO":999,"REV_AT_EPOCH":5378,"BSTAR":0.00039588576,"MEAN_MOTION_DOT":4.541e-5,"MEAN_MOTION_DDOT":0},{"OBJECT_NAME":"STARLINK-34081","OBJECT_ID":"2025-102Y","EPOCH":"2026-03-09T22:00:01.999584","MEAN_MOTION":14.98343703,"ECCENTRICITY":0.00035553,"INCLINATION":70,"RA_OF_ASC_NODE":114.0075,"ARG_OF_PERICENTER":266.7262,"MEAN_ANOMALY":72.8225,"EPHEMERIS_TYPE":0,"CLASSIFICATION_TYPE":"U","NORAD_CAT_ID":64044,"ELEMENT_SET_NO":999,"REV_AT_EPOCH":576,"BSTAR":0.0026762072,"MEAN_MOTION_DOT":0.00031998,"MEAN_MOTION_DDOT":0}]
